C/2020 P1 (NEOWISE),h,10/21.2967/2020,45.0781,53.4945,8.9432,1.000451,0.342301,2000,14.0,3.2
# From MPEC 2024-JU4
C/2020 P3 (ATLAS),h,04/23.1105/2021,61.8449,19.4875,82.3621,1.003866,6.817104,2000,6.0,4.0
# From MPEC 2022-PB4
C/2020 PV6 (PANSTARRS),e,128.1427,329.1226,71.2646,41.55541,0.0036793,0.94487482,5.5019,10/30.0/2025,2000,g 10.0,4.0
# From MPEC 2022-L66
C/2020 Q1 (Borisov),e,142.9100,52.4209,10.0374,62.50383,0.0019945,0.97889580,0.0000,08/15.5526/2020,2000,g 14.0,4.0
# From MPEC 2023-CD7
C/2020 Q2 (PANSTARRS),e,3.3361,179.8357,118.1624,10.59687,0.0285718,0.48862701,60.1705,10/30.0/2025,2000,g 12.0,3.2
# From MPEC 2024-F34
C/2020 R2 (PANSTARRS),e,53.2100,195.1360,211.8915,429.3289,0.0001108,0.98905146,0.0000,02/25.3121/2022,2000,g  9.0,4.0
# From MPEC 2022-K19
C/2020 R4 (ATLAS),e,164.3962,323.2251,46.4871,96.64865,0.0010373,0.98944706,0.0000,03/02.0629/2021,2000,g 13.5,4.0
# From MPEC 2023-C45
P/2020 R5 (PANSTARRS),e,11.4394,272.9371,82.7430,4.994007,0.0883142,0.31292716,175.0615,10/30.0/2025,2000,g  9.5,6.0
# From MPEC 2021-Y10
C/2020 R6 (Rankin),e,82.9110,12.2520,271.9938,289.5332,0.0002001,0.98915643,0.0000,09/06.6883/2019,2000,g 11.0,4.0
# From MPEC 2024-PC5
C/2020 R7 (ATLAS),e,114.9032,268.3095,347.7380,5652,0.0000023,0.99947800,0.0000,09/15.9668/2022,2000,g  7.0,3.2
# From MPEC 2021-BE3
P/2020 S1 (PANSTARRS),e,13.7134,129.4845,255.1820,6.002864,0.0670141,0.50663597,117.1043,10/30.0/2025,2000,g 14.0,4.0
# From MPEC 2022-ST7
C/2020 S2 (PANSTARRS),e,22.3658,197.7124,202.4401,10.25312,0.0300206,0.82781918,53.2309,10/30.0/2025,2000,g 17.0,4.0
# From MPEC 2024-JU4
C/2020 S3 (Erasmus),e,20.0853,222.4891,350.0516,140.6344,0.0005910,0.99721512,0.0000,12/11.3789/2020,2000,g 13.5,3.2
# From MPEC 2024-N80
C/2020 S4 (PANSTARRS),h,02/09.6896/2023,20.5712,117.6775,21.0778,1.002945,3.370891,2000,8.5,3.2
# From MPEC 2021-BE3
P/2020 S5 (PANSTARRS),e,12.3398,316.0137,53.2714,4.059029,0.1205232,0.33715724,230.1351,10/30.0/2025,2000,g 14.5,4.0
# From MPEC 2021-BE3
P/2020 S7 (PANSTARRS),e,16.0679,328.0785,40.6667,5.037482,0.0871734,0.40928647,157.6060,10/30.0/2025,2000,g 14.5,4.0
# From MPEC 2021-P47
C/2020 S8 (Lemmon),e,108.5507,23.9878,160.1121,236.9663,0.0002702,0.99006094,0.0000,04/10.2492/2021,2000,g 12.5,4.0
# From MPEC 2022-TD3
C/2020 T2 (Palomar),e,27.8409,83.0229,150.3273,265.9866,0.0002272,0.99229041,0.0000,07/10.5981/2021,2000,g 11.0,3.2
# From MPEC 2021-N06
P/2020 T3 (PANSTARRS),e,7.2980,73.9903,357.0896,3.515835,0.1495070,0.59241225,260.3497,10/30.0/2025,2000,g 18.0,3.2
# From MPEC 2021-N06
C/2020 T4 (PANSTARRS),h,07/06.2560/2021,83.8142,50.5987,79.5656,1.000701,2.186897,2000,13.0,3.2
# From MPEC 2021-BE3
C/2020 T5 (Lemmon),e,66.5669,237.8550,90.3859,592.9559,0.0000683,0.99679750,0.0000,10/07.4210/2020,2000,g 16.0,4.0
# From MPEC 2021-N06
P/2020 U2 (PANSTARRS),e,6.4201,342.8049,84.7911,3.777758,0.1342310,0.51128933,237.2303,10/30.0/2025,2000,g 18.0,4.0
# From MPEC 2021-W31
C/2020 U3 (Rankin),e,30.1381,282.5943,124.5450,67.72898,0.0017682,0.96622289,3.0541,10/30.0/2025,2000,g 15.0,4.0
# From MPEC 2024-TD8
C/2020 U4 (PANSTARRS),h,04/10.1983/2022,167.0037,120.4051,70.1893,1.001464,5.362658,2000,7.0,4.0
# From MPEC 2024-GJ3
C/2020 U5 (PANSTARRS),e,97.3160,107.3132,75.4693,21354,0.0000003,0.99982408,0.0000,04/28.5294/2022,2000,g  8.0,4.0
# From MPC188409
C/2020 V2 (ZTF),h,05/08.5663/2023,131.6105,212.4130,162.4773,1.001150,2.229671,2000,4.9,4.0
# From MPEC 2023-D72
P/2020 V3 (PANSTARRS),e,23.0174,198.2712,249.8745,8.410698,0.0404069,0.25785641,69.3587,10/30.0/2025,2000,g  8.3,4.0
# From MPC188409
P/2020 V4 (Rankin),e,14.2342,203.4886,257.2960,9.401739,0.0341894,0.45162024,53.4019,10/30.0/2025,2000,g  9.0,4.0
# From MPEC 2021-BE3
P/2020 W1 (Rankin),e,10.7764,124.3834,265.4166,7.226932,0.0507310,0.26522632,102.9367,10/30.0/2025,2000,g 10.0,4.0
# From MPEC 2021-BE3
C/2020 W5 (Lemmon),h,12/01.0805/2020,88.6110,75.4704,24.6264,1.002332,3.372040,2000,15.0,4.0
# From MPEC 2024-PC5
P/2020 WJ5 (Lemmon),e,22.2887,177.7534,338.1118,6.015663,0.0668004,0.17224592,105.6806,10/30.0/2025,2000,g  8.5,4.0
# From MPEC 2024-F34
P/2020 X1 (ATLAS),e,31.6888,55.9908,323.5252,4.536891,0.1019921,0.36418899,196.6834,10/30.0/2025,2000,g 13.0,4.0
# From MPEC 2024-A43
C/2020 X2 (ATLAS),e,18.1871,105.3515,347.6039,16.55368,0.0146340,0.76837717,26.4540,10/30.0/2025,2000,g 10.6,4.0
# From MPEC 2021-S45
C/2020 X4 (Leonard),e,80.6649,161.9679,140.2766,40.55030,0.0038169,0.87119226,6.9074,10/30.0/2025,2000,g  9.0,4.0
# From MPEC 2024-YC7
C/2020 Y2 (ATLAS),e,101.2287,26.5446,266.4172,1223,0.0000230,0.99742723,0.0000,06/17.6571/2022,2000,g  6.5,4.0
# From MPEC 2021-R75
C/2020 Y3 (ATLAS),e,83.1573,191.3196,341.8471,137.2912,0.0006127,0.98550600,0.0000,12/03.2268/2020,2000,g 13.5,4.0
# From MPEC 2025-A40
C/2021 A1 (Leonard),h,01/03.9840/2022,132.7456,255.9071,225.1261,1.000267,0.614857,2000,8.5,4.0
# From MPEC 2025-A40
C/2021 A2 (NEOWISE),e,107.0646,125.0453,338.8158,230.6399,0.0002814,0.99385348,0.0000,01/21.7846/2021,2000,g 13.5,4.0
# From MPEC 2022-ED3
C/2021 A4 (NEOWISE),e,111.6670,307.0872,204.7638,42.59339,0.0035456,0.97298196,0.0000,03/19.6682/2021,2000,g 16.0,4.0
# From MPEC 2021-BE3
P/2021 A5 (PANSTARRS),e,18.1903,328.8102,61.5744,3.045923,0.1854068,0.13969950,335.4444,10/30.0/2025,2000,g 15.0,4.0
# From MPEC 2024-P23
C/2021 A6 (PANSTARRS),e,75.5585,164.0142,351.6383,14779,0.0000005,0.99946374,0.0000,05/03.2294/2021,2000,g  7.0,4.0
# From MPEC 2022-M88
C/2021 A7 (NEOWISE),e,78.2333,154.3834,356.0125,1963,0.0000113,0.99899847,0.0000,07/15.1875/2021,2000,g 10.0,4.0
# From MPEC 2025-UQ3
C/2021 A9 (PANSTARRS),e,158.0179,314.8521,211.6589,43810,0.0000001,0.99982276,0.0000,12/04.2600/2023,2000,g  6.0,4.0
# From MPEC 2021-N06
C/2021 A10 (NEOWISE),e,152.0068,188.8688,82.6878,89.95428,0.0011552,0.98590629,0.0000,03/14.7025/2021,2000,g 19.0,4.0
# From MPEC 2022-L66
C/2021 B2 (PANSTARRS),e,38.0887,120.4264,335.1514,416.2768,0.0001160,0.99395488,0.0000,05/04.8810/2021,2000,g 14.0,4.0
# From MPEC 2021-N06
C/2021 B3 (NEOWISE),e,119.4810,67.2926,293.6303,34.22877,0.0049217,0.93659853,8.3469,10/30.0/2025,2000,g 13.5,4.0
# From MPEC 2023-KD6
C/2021 C1 (Rankin),e,143.0439,186.8085,336.0362,1655,0.0000146,0.99790170,0.0000,12/05.4260/2020,2000,g 11.5,4.0
# From MPEC 2021-U31
P/2021 C2 (PANSTARRS),e,21.9362,66.4542,78.7405,9.548272,0.0334054,0.48852370,57.0565,10/30.0/2025,2000,g 12.0,4.0
# From MPEC 2024-M41
C/2021 C3 (Catalina),e,122.2220,181.8329,356.9699,60.33473,0.0021031,0.96229491,3.6217,10/30.0/2025,2000,g 14.0,4.0
# From MPEC 2025-UQ3
C/2021 C4 (ATLAS),e,132.8269,194.2138,319.9990,3159,0.0000056,0.99857789,0.0000,01/15.9285/2021,2000,g  9.0,4.0
# From MPEC 2024-N80
C/2021 C5 (PANSTARRS),e,50.8059,323.6745,270.8767,1684,0.0000143,0.99807590,0.0000,02/10.9937/2023,2000,g  9.0,4.0
# From MPEC 2022-YB4
C/2021 C6 (Lemmon),e,164.6105,332.3218,203.8893,2729,0.0000069,0.99879533,0.0000,11/11.7077/2021,2000,g 12.0,4.0
# From MPEC 2022-F14
C/2021 D1 (SWAN),e,31.3445,311.1411,72.4991,102.0050,0.0009567,0.99108404,0.0000,02/27.1371/2021,2000,g 13.0,4.0
# From MPEC 2023-J29
C/2021 D2 (ZTF),h,02/03.5139/2022,83.7670,305.6188,125.0834,1.001401,2.950939,2000,9.0,4.0
# From MPEC 2022-UY9
A/2021 E2,e,167.4958,190.7296,342.1965,197.8231,0.0003542,0.98845626,0.0000,12/08.5825/2020,2000,g 15.0,2.0
# From MPEC 2024-GJ3
C/2021 E3 (ZTF),e,112.5211,104.4839,228.7888,5057,0.0000027,0.99964850,0.0000,06/10.8581/2022,2000,g  8.5,4.0
# From MPEC 2024-N80
A/2021 E4,e,116.3903,171.1336,48.2947,505.6269,0.0000867,0.99074197,0.0000,04/24.8339/2022,2000,g 13.5,2.0
# From MPEC 2022-QD9
C/2021 F1 (Lemmon-PANSTARRS),e,107.2786,203.5787,146.9620,249.7057,0.0002498,0.99599704,0.0000,04/06.7489/2022,2000,g 13.5,4.0
# From MPEC 2021-J72
C/2021 G1 (Leonard),e,131.5470,270.6978,107.4462,70.88841,0.0016514,0.95162170,2.5809,10/30.0/2025,2000,g 14.0,4.0
# From MPEC 2025-UQ3
C/2021 G2 (ATLAS),h,09/09.1309/2024,48.4633,221.0924,343.2648,1.000881,4.982123,2000,5.5,4.0
# From MPEC 2022-X67
C/2021 G3 (PANSTARRS),e,102.8756,147.3342,10.6112,9878,0.0000010,0.99947522,0.0000,10/17.8954/2021,2000,g 10.5,4.0
# From MPEC 2021-Y10
P/2021 HS (PANSTARRS),e,12.1521,262.3475,46.1135,4.193061,0.1147909,0.80952997,177.6690,10/30.0/2025,2000,g 22.0,4.0
# From MPEC 2022-C56
C/2021 J1 (Maury-Attard),e,92.7079,88.4317,147.1718,26.16601,0.0073637,0.93379780,12.6181,10/30.0/2025,2000,g 15.5,4.0
# From MPEC 2023-XP6
C/2021 J2 (PANSTARRS),e,156.2117,23.3011,171.8646,110.8125,0.0008449,0.95757080,1.2679,10/30.0/2025,2000,g 12.0,4.0
# From MPEC 2024-F34
P/2021 J3 (ATLAS),e,14.5129,110.9620,125.5800,8.883878,0.0372220,0.44961670,86.1305,10/30.0/2025,2000,g  7.0,4.0
# From MPEC 2022-O08
C/2021 K1 (ATLAS),e,16.2696,140.9283,184.2085,12.59440,0.0220515,0.80128063,36.2115,10/30.0/2025,2000,g 11.0,4.0
# From MPEC 2022-O01
C/2021 K2 (MASTER),h,09/09.0920/2021,100.8721,282.3405,343.2514,1.000267,5.461660,2000,8.0,4.0
# From MPEC 2022-L66
C/2021 K3 (Catalina),h,02/03.4937/2022,134.7804,114.6140,181.9928,1.003999,5.225886,2000,10.0,4.0
# From MPEC 2021-W31
P/2021 L2 (Leonard),e,21.0631,266.6483,51.4126,4.047068,0.1210579,0.52097553,188.9084,10/30.0/2025,2000,g 17.0,4.0
# From MPEC 2024-H50
C/2021 L3 (Borisov),h,02/15.0058/2022,78.5291,345.0220,91.6566,1.004419,8.461021,2000,6.0,4.0
# From MPEC 2022-TA0
P/2021 N1 (ZTF),e,11.4853,301.1325,21.2205,2.980147,0.1915788,0.67572168,308.1127,10/30.0/2025,2000,g 19.0,4.0
# From MPEC 2024-GJ3
P/2021 N2 (Fuls),e,13.0593,221.7484,177.6449,6.947606,0.0538209,0.45195493,77.8270,10/30.0/2025,2000,g  9.5,4.0
# From MPEC 2022-YB4
C/2021 N3 (PANSTARRS),e,26.7680,337.5352,304.5581,139.1997,0.0006001,0.95898113,1.1405,10/30.0/2025,2000,g  8.5,4.0
# From MPEC 2022-A21
C/2021 O1 (Nishimura),e,27.5588,41.5152,74.4546,6526,0.0000019,0.99988007,0.0000,08/14.9323/2021,2000,g 10.5,4.0
# From MPEC 2022-L66
C/2021 O3 (PANSTARRS),h,04/21.3593/2022,56.8408,188.7175,300.0532,1.000057,0.284920,2000,10.5,4.0
# From MPEC 2024-F34
